{"fetched_at":"2026-04-08T20:46:07Z","count":9901,"tles":[{"name":"STARLINK-36299","line1":"1 68534U 26068AC  26097.55196939  .00058028  12475-4  16595-3 0  9994","line2":"2 68534  53.1610   4.6021 0004013 191.3697 168.7241 15.93632314  1233","category":"Starlink"}]}