{
  "norad_id": 68534,
  "name": "STARLINK-36299",
  "history": [
    {
      "epoch": "2026-04-07T13:14:50.155296Z",
      "apogee_km": 294.80480213850205,
      "perigee_km": 289.4512474296098,
      "latitude_deg": -1.6125279212540105e-05,
      "longitude_deg": -29.934125917487176,
      "height_km": 295.6775264652521,
      "semi_major_axis_km": 6670.265024784056,
      "eccentricity": 0.0004013,
      "inclination_deg": 53.161,
      "raan_deg": 4.6021,
      "arg_perigee_deg": 191.3697,
      "mean_anomaly_deg": 168.7241,
      "mean_motion_rev_day": 15.93632314
    }
  ]
}